STARLINK-36155          
1 66938U 25286P   26003.33336806 -.00155008  00000+0 -28275-2 0  9994
2 66938  53.1586 304.4574 0001090  88.1775   0.2121 15.49379009  5463
STARLINK-36154          
1 66939U 25286Q   26003.50002314  .00068135  00000+0  17053-2 0  9992
2 66939  53.1600 303.9561 0001177 110.7059  39.1095 15.39491401  5487
STARLINK-36121          
1 66940U 25286R   26003.50002314 -.00244759  00000+0 -62799-2 0  9991
2 66940  53.1597 303.9049 0001226  68.6386 106.7282 15.39751990  5485
STARLINK-36088          
1 66941U 25286S   26003.18144879  .00102081  00000+0  18179-2 0  9991
2 66941  53.1585 305.1033 0001148  83.3878 276.7262 15.49334965  5355
STARLINK-36100          
1 66942U 25286T   26003.50002314  .00031056  00000+0  78493-3 0  9994
2 66942  53.1591 303.8527 0000640  87.5395 113.6710 15.39553563  5412
STARLINK-36109          
1 66943U 25286U   26003.50002314 -.00120932  00000+0 -30578-2 0  9990
2 66943  53.1588 303.7497 0001538  95.1441 157.5120 15.39655000  5419
STARLINK-36112          
1 66944U 25286V   26003.50002314 -.02080458  00000+0 -51099-1 0  9991
2 66944  53.1591 303.6591 0001259 100.4938 196.9658 15.43733757  5480
STARLINK-36110          
1 66945U 25286W   26003.50002314 -.00266617  00000+0 -68605-2 0  9995
2 66945  53.1595 303.6970 0001228  98.3321 180.0168 15.39754006  5488
STARLINK-36115          
1 66946U 25286X   26003.50002314 -.02105504  00000+0 -46949-1 0  9991
2 66946  53.1592 303.6333 0001075  99.3731 211.3632 15.46581450  5488
STARLINK-36089          
1 66947U 25286Y   26003.12059426  .00118889  00000+0  21110-2 0  9996
2 66947  53.1597 305.4330 0001233  88.5736 271.5415 15.49339495  5347
STARLINK-36116          
1 66948U 25286Z   26003.50002314 -.02025464  00000+0 -40402-1 0  9997
2 66948  53.1588 303.6228 0001273 105.2243 210.4417 15.49605431  5483
STARLINK-36096          
1 66949U 25286AA  26003.50002314 -.00249883  00000+0 -64167-2 0  9994
2 66949  53.1589 303.7995 0001199  86.3115 140.5729 15.39747756  5486
