CCSDS_OMM_VERS = 2.0
CREATION_DATE  = 
ORIGINATOR     = 

OBJECT_NAME    = STARLINK-36155
OBJECT_ID      = 2025-286P
CENTER_NAME    = EARTH
REF_FRAME      = TEME
TIME_SYSTEM    = UTC
MEAN_ELEMENT_THEORY = SGP/SGP4

EPOCH          = 2026-01-03T08:00:03.000384
MEAN_MOTION    = 15.49379009
ECCENTRICITY   = .000109
INCLINATION    = 53.1586
RA_OF_ASC_NODE = 304.4574
ARG_OF_PERICENTER = 88.1775
MEAN_ANOMALY   = 0.2121

EPHEMERIS_TYPE = 0
CLASSIFICATION_TYPE = U
NORAD_CAT_ID   = 66938
ELEMENT_SET_NO = 999
REV_AT_EPOCH   = 546
BSTAR          = -.28275E-2
MEAN_MOTION_DOT = -.155008E-2
MEAN_MOTION_DDOT = 0

CCSDS_OMM_VERS = 2.0
CREATION_DATE  = 
ORIGINATOR     = 

OBJECT_NAME    = STARLINK-36154
OBJECT_ID      = 2025-286Q
CENTER_NAME    = EARTH
REF_FRAME      = TEME
TIME_SYSTEM    = UTC
MEAN_ELEMENT_THEORY = SGP/SGP4

EPOCH          = 2026-01-03T12:00:01.999296
MEAN_MOTION    = 15.39491401
ECCENTRICITY   = .0001177
INCLINATION    = 53.1600
RA_OF_ASC_NODE = 303.9561
ARG_OF_PERICENTER = 110.7059
MEAN_ANOMALY   = 39.1095

EPHEMERIS_TYPE = 0
CLASSIFICATION_TYPE = U
NORAD_CAT_ID   = 66939
ELEMENT_SET_NO = 999
REV_AT_EPOCH   = 548
BSTAR          = .17053E-2
MEAN_MOTION_DOT = .68135E-3
MEAN_MOTION_DDOT = 0

CCSDS_OMM_VERS = 2.0
CREATION_DATE  = 
ORIGINATOR     = 

OBJECT_NAME    = STARLINK-36121
OBJECT_ID      = 2025-286R
CENTER_NAME    = EARTH
REF_FRAME      = TEME
TIME_SYSTEM    = UTC
MEAN_ELEMENT_THEORY = SGP/SGP4

EPOCH          = 2026-01-03T12:00:01.999296
MEAN_MOTION    = 15.39751990
ECCENTRICITY   = .0001226
INCLINATION    = 53.1597
RA_OF_ASC_NODE = 303.9049
ARG_OF_PERICENTER = 68.6386
MEAN_ANOMALY   = 106.7282

EPHEMERIS_TYPE = 0
CLASSIFICATION_TYPE = U
NORAD_CAT_ID   = 66940
ELEMENT_SET_NO = 999
REV_AT_EPOCH   = 548
BSTAR          = -.62799E-2
MEAN_MOTION_DOT = -.244759E-2
MEAN_MOTION_DDOT = 0

CCSDS_OMM_VERS = 2.0
CREATION_DATE  = 
ORIGINATOR     = 

OBJECT_NAME    = STARLINK-36088
OBJECT_ID      = 2025-286S
CENTER_NAME    = EARTH
REF_FRAME      = TEME
TIME_SYSTEM    = UTC
MEAN_ELEMENT_THEORY = SGP/SGP4

EPOCH          = 2026-01-03T04:21:17.175456
MEAN_MOTION    = 15.49334965
ECCENTRICITY   = .00011481
INCLINATION    = 53.1585
RA_OF_ASC_NODE = 305.1033
ARG_OF_PERICENTER = 83.3878
MEAN_ANOMALY   = 276.7262

EPHEMERIS_TYPE = 0
CLASSIFICATION_TYPE = U
NORAD_CAT_ID   = 66941
ELEMENT_SET_NO = 999
REV_AT_EPOCH   = 535
BSTAR          = .18179244E-2
MEAN_MOTION_DOT = .102081E-2
MEAN_MOTION_DDOT = 0

CCSDS_OMM_VERS = 2.0
CREATION_DATE  = 
ORIGINATOR     = 

OBJECT_NAME    = STARLINK-36100
OBJECT_ID      = 2025-286T
CENTER_NAME    = EARTH
REF_FRAME      = TEME
TIME_SYSTEM    = UTC
MEAN_ELEMENT_THEORY = SGP/SGP4

EPOCH          = 2026-01-03T12:00:01.999296
MEAN_MOTION    = 15.39553563
ECCENTRICITY   = .000064
INCLINATION    = 53.1591
RA_OF_ASC_NODE = 303.8527
ARG_OF_PERICENTER = 87.5395
MEAN_ANOMALY   = 113.6710

EPHEMERIS_TYPE = 0
CLASSIFICATION_TYPE = U
NORAD_CAT_ID   = 66942
ELEMENT_SET_NO = 999
REV_AT_EPOCH   = 541
BSTAR          = .78493E-3
MEAN_MOTION_DOT = .31056E-3
MEAN_MOTION_DDOT = 0

CCSDS_OMM_VERS = 2.0
CREATION_DATE  = 
ORIGINATOR     = 

OBJECT_NAME    = STARLINK-36109
OBJECT_ID      = 2025-286U
CENTER_NAME    = EARTH
REF_FRAME      = TEME
TIME_SYSTEM    = UTC
MEAN_ELEMENT_THEORY = SGP/SGP4

EPOCH          = 2026-01-03T12:00:01.999296
MEAN_MOTION    = 15.39655000
ECCENTRICITY   = .0001538
INCLINATION    = 53.1588
RA_OF_ASC_NODE = 303.7497
ARG_OF_PERICENTER = 95.1441
MEAN_ANOMALY   = 157.5120

EPHEMERIS_TYPE = 0
CLASSIFICATION_TYPE = U
NORAD_CAT_ID   = 66943
ELEMENT_SET_NO = 999
REV_AT_EPOCH   = 541
BSTAR          = -.30578E-2
MEAN_MOTION_DOT = -.120932E-2
MEAN_MOTION_DDOT = 0

CCSDS_OMM_VERS = 2.0
CREATION_DATE  = 
ORIGINATOR     = 

OBJECT_NAME    = STARLINK-36112
OBJECT_ID      = 2025-286V
CENTER_NAME    = EARTH
REF_FRAME      = TEME
TIME_SYSTEM    = UTC
MEAN_ELEMENT_THEORY = SGP/SGP4

EPOCH          = 2026-01-03T12:00:01.999296
MEAN_MOTION    = 15.43733757
ECCENTRICITY   = .0001259
INCLINATION    = 53.1591
RA_OF_ASC_NODE = 303.6591
ARG_OF_PERICENTER = 100.4938
MEAN_ANOMALY   = 196.9658

EPHEMERIS_TYPE = 0
CLASSIFICATION_TYPE = U
NORAD_CAT_ID   = 66944
ELEMENT_SET_NO = 999
REV_AT_EPOCH   = 548
BSTAR          = -.51099E-1
MEAN_MOTION_DOT = -.2080458E-1
MEAN_MOTION_DDOT = 0

CCSDS_OMM_VERS = 2.0
CREATION_DATE  = 
ORIGINATOR     = 

OBJECT_NAME    = STARLINK-36110
OBJECT_ID      = 2025-286W
CENTER_NAME    = EARTH
REF_FRAME      = TEME
TIME_SYSTEM    = UTC
MEAN_ELEMENT_THEORY = SGP/SGP4

EPOCH          = 2026-01-03T12:00:01.999296
MEAN_MOTION    = 15.39754006
ECCENTRICITY   = .0001228
INCLINATION    = 53.1595
RA_OF_ASC_NODE = 303.6970
ARG_OF_PERICENTER = 98.3321
MEAN_ANOMALY   = 180.0168

EPHEMERIS_TYPE = 0
CLASSIFICATION_TYPE = U
NORAD_CAT_ID   = 66945
ELEMENT_SET_NO = 999
REV_AT_EPOCH   = 548
BSTAR          = -.68605E-2
MEAN_MOTION_DOT = -.266617E-2
MEAN_MOTION_DDOT = 0

CCSDS_OMM_VERS = 2.0
CREATION_DATE  = 
ORIGINATOR     = 

OBJECT_NAME    = STARLINK-36115
OBJECT_ID      = 2025-286X
CENTER_NAME    = EARTH
REF_FRAME      = TEME
TIME_SYSTEM    = UTC
MEAN_ELEMENT_THEORY = SGP/SGP4

EPOCH          = 2026-01-03T12:00:01.999296
MEAN_MOTION    = 15.46581450
ECCENTRICITY   = .0001075
INCLINATION    = 53.1592
RA_OF_ASC_NODE = 303.6333
ARG_OF_PERICENTER = 99.3731
MEAN_ANOMALY   = 211.3632

EPHEMERIS_TYPE = 0
CLASSIFICATION_TYPE = U
NORAD_CAT_ID   = 66946
ELEMENT_SET_NO = 999
REV_AT_EPOCH   = 548
BSTAR          = -.46949E-1
MEAN_MOTION_DOT = -.2105504E-1
MEAN_MOTION_DDOT = 0

CCSDS_OMM_VERS = 2.0
CREATION_DATE  = 
ORIGINATOR     = 

OBJECT_NAME    = STARLINK-36089
OBJECT_ID      = 2025-286Y
CENTER_NAME    = EARTH
REF_FRAME      = TEME
TIME_SYSTEM    = UTC
MEAN_ELEMENT_THEORY = SGP/SGP4

EPOCH          = 2026-01-03T02:53:39.344064
MEAN_MOTION    = 15.49339495
ECCENTRICITY   = .00012332
INCLINATION    = 53.1597
RA_OF_ASC_NODE = 305.4330
ARG_OF_PERICENTER = 88.5736
MEAN_ANOMALY   = 271.5415

EPHEMERIS_TYPE = 0
CLASSIFICATION_TYPE = U
NORAD_CAT_ID   = 66947
ELEMENT_SET_NO = 999
REV_AT_EPOCH   = 534
BSTAR          = .21110414E-2
MEAN_MOTION_DOT = .118889E-2
MEAN_MOTION_DDOT = 0

CCSDS_OMM_VERS = 2.0
CREATION_DATE  = 
ORIGINATOR     = 

OBJECT_NAME    = STARLINK-36116
OBJECT_ID      = 2025-286Z
CENTER_NAME    = EARTH
REF_FRAME      = TEME
TIME_SYSTEM    = UTC
MEAN_ELEMENT_THEORY = SGP/SGP4

EPOCH          = 2026-01-03T12:00:01.999296
MEAN_MOTION    = 15.49605431
ECCENTRICITY   = .0001273
INCLINATION    = 53.1588
RA_OF_ASC_NODE = 303.6228
ARG_OF_PERICENTER = 105.2243
MEAN_ANOMALY   = 210.4417

EPHEMERIS_TYPE = 0
CLASSIFICATION_TYPE = U
NORAD_CAT_ID   = 66948
ELEMENT_SET_NO = 999
REV_AT_EPOCH   = 548
BSTAR          = -.40402E-1
MEAN_MOTION_DOT = -.2025464E-1
MEAN_MOTION_DDOT = 0

CCSDS_OMM_VERS = 2.0
CREATION_DATE  = 
ORIGINATOR     = 

OBJECT_NAME    = STARLINK-36096
OBJECT_ID      = 2025-286AA
CENTER_NAME    = EARTH
REF_FRAME      = TEME
TIME_SYSTEM    = UTC
MEAN_ELEMENT_THEORY = SGP/SGP4

EPOCH          = 2026-01-03T12:00:01.999296
MEAN_MOTION    = 15.39747756
ECCENTRICITY   = .0001199
INCLINATION    = 53.1589
RA_OF_ASC_NODE = 303.7995
ARG_OF_PERICENTER = 86.3115
MEAN_ANOMALY   = 140.5729

EPHEMERIS_TYPE = 0
CLASSIFICATION_TYPE = U
NORAD_CAT_ID   = 66949
ELEMENT_SET_NO = 999
REV_AT_EPOCH   = 548
BSTAR          = -.64167E-2
MEAN_MOTION_DOT = -.249883E-2
MEAN_MOTION_DDOT = 0

